[Satellite]
VERSION=1.1
NAME=IRIDIUM 117 [+]
NICKNAME=IRIDIUM 117 [+]
TLE1=1 42808U 17039F   20158.08929329  .00000087  00000-0  23837-4 0  9992
TLE2=2 42808  86.3999 193.8432 0002144  80.5383 279.6055 14.34215841154351
STATUS=0
